$$SOE
2461295.500000000, A.D. 2026-Sep-12 00:00:00.0000, 1.489896625746007E+08, -4.102870025316738E+08, -1.315232625924662E+07,
2461302.500000000, A.D. 2026-Sep-19 00:00:00.0000, 1.589395520574947E+08, -4.066787364163700E+08, -1.361144620752084E+07,
2461309.500000000, A.D. 2026-Sep-26 00:00:00.0000, 1.687969108938677E+08, -4.028336915086787E+08, -1.406264014316565E+07,
2461316.500000000, A.D. 2026-Oct-03 00:00:00.0000, 1.785560991042437E+08, -3.987543493107224E+08, -1.450565366462088E+07,
2461323.500000000, A.D. 2026-Oct-10 00:00:00.0000, 1.882115474741600E+08, -3.944433264865925E+08, -1.494023781510153E+07,
2461330.500000000, A.D. 2026-Oct-17 00:00:00.0000, 1.977577607366198E+08, -3.899033725898194E+08, -1.536614921236333E+07,
2461337.500000000, A.D. 2026-Oct-24 00:00:00.0000, 2.071893206658066E+08, -3.851373678117136E+08, -1.578315018115506E+07,
2461344.500000000, A.D. 2026-Oct-31 00:00:00.0000, 2.165008891791341E+08, -3.801483208189030E+08, -1.619100890272081E+07,
2461351.500000000, A.D. 2026-Nov-07 00:00:00.0000, 2.256872117859700E+08, -3.749393666086081E+08, -1.658949960619783E+07,
2461358.500000000, A.D. 2026-Nov-14 00:00:00.0000, 2.347431215832771E+08, -3.695137634982358E+08, -1.697840274752928E+07,
2461365.500000000, A.D. 2026-Nov-21 00:00:00.0000, 2.436635419848405E+08, -3.638748885716243E+08, -1.735750495368622E+07,
2461372.500000000, A.D. 2026-Nov-28 00:00:00.0000, 2.524434871835548E+08, -3.580262345924426E+08, -1.772659888620679E+07,
2461379.500000000, A.D. 2026-Dec-05 00:00:00.0000, 2.610780639648531E+08, -3.519714090424312E+08, -1.808548340942283E+07,
2461386.500000000, A.D. 2026-Dec-12 00:00:00.0000, 2.695624750361149E+08, -3.457141321763526E+08, -1.843396382398930E+07,
2461393.500000000, A.D. 2026-Dec-19 00:00:00.0000, 2.778920219845647E+08, -3.392582340910175E+08, -1.877185199182633E+07,
2461400.500000000, A.D. 2026-Dec-26 00:00:00.0000, 2.860621077206241E+08, -3.326076516799435E+08, -1.909896641012371E+07,
2461407.500000000, A.D. 2027-Jan-02 00:00:00.0000, 2.940682386817382E+08, -3.257664256679042E+08, -1.941513227514237E+07,
2461414.500000000, A.D. 2027-Jan-09 00:00:00.0000, 3.019060269125349E+08, -3.187386977086116E+08, -1.972018154477805E+07,
2461421.500000000, A.D. 2027-Jan-16 00:00:00.0000, 3.095711920550026E+08, -3.115287075401164E+08, -2.001395300235951E+07,
2461428.500000000, A.D. 2027-Jan-23 00:00:00.0000, 3.170595632924033E+08, -3.041407902405139E+08, -2.029629232916248E+07,
2461435.500000000, A.D. 2027-Jan-30 00:00:00.0000, 3.243670814324753E+08, -2.965793736339666E+08, -2.056705220685579E+07,
2461442.500000000, A.D. 2027-Feb-06 00:00:00.0000, 3.314898015537354E+08, -2.888489755093691E+08, -2.082609246117201E+07,
2461449.500000000, A.D. 2027-Feb-13 00:00:00.0000, 3.384238957546781E+08, -2.809541994359033E+08, -2.107328010504740E+07,
2461456.500000000, A.D. 2027-Feb-20 00:00:00.0000, 3.451656536411556E+08, -2.728997299711683E+08, -2.130848912928548E+07,
2461463.500000000, A.D. 2027-Feb-27 00:00:00.0000, 3.517114819455877E+08, -2.646903304781908E+08, -2.153160043168665E+07,
2461470.500000000, A.D. 2027-Mar-06 00:00:00.0000, 3.580579062951559E+08, -2.563308416299186E+08, -2.174250200460902E+07,
2461477.500000000, A.D. 2027-Mar-13 00:00:00.0000, 3.642015735297520E+08, -2.478261785540464E+08, -2.194108906695788E+07,
2461484.500000000, A.D. 2027-Mar-20 00:00:00.0000, 3.701392534414975E+08, -2.391813274558177E+08, -2.212726410547531E+07,
2461491.500000000, A.D. 2027-Mar-27 00:00:00.0000, 3.758678401389366E+08, -2.304013422705809E+08, -2.230093688894148E+07,
2461498.500000000, A.D. 2027-Apr-03 00:00:00.0000, 3.813843532400462E+08, -2.214913413965704E+08, -2.246202447799775E+07,
2461505.500000000, A.D. 2027-Apr-10 00:00:00.0000, 3.866859389566774E+08, -2.124565044877821E+08, -2.261045123449384E+07,
2461512.500000000, A.D. 2027-Apr-17 00:00:00.0000, 3.917698710935688E+08, -2.033020693245304E+08, -2.274614883369896E+07,
2461519.500000000, A.D. 2027-Apr-24 00:00:00.0000, 3.966335520410876E+08, -1.940333288271185E+08, -2.286905629183301E+07,
2461526.500000000, A.D. 2027-May-01 00:00:00.0000, 4.012745140598764E+08, -1.846556281869472E+08, -2.297912003415997E+07,
2461533.500000000, A.D. 2027-May-08 00:00:00.0000, 4.056904211637576E+08, -1.751743613671721E+08, -2.307629397059689E+07,
2461540.500000000, A.D. 2027-May-15 00:00:00.0000, 4.098790701052839E+08, -1.655949660202004E+08, -2.316053936355157E+07,
2461547.500000000, A.D. 2027-May-22 00:00:00.0000, 4.138383889017203E+08, -1.559229194154309E+08, -2.323182455643120E+07,
2461554.500000000, A.D. 2027-May-29 00:00:00.0000, 4.175664362580717E+08, -1.461637368461983E+08, -2.329012499072860E+07,
2461561.500000000, A.D. 2027-Jun-05 00:00:00.0000, 4.210614027744387E+08, -1.363229693847256E+08, -2.333542333696767E+07,
2461568.500000000, A.D. 2027-Jun-12 00:00:00.0000, 4.243216119339468E+08, -1.264062005557659E+08, -2.336770952014554E+07,
2461575.500000000, A.D. 2027-Jun-19 00:00:00.0000, 4.273455205428730E+08, -1.164190428672399E+08, -2.338698068571615E+07,
2461582.500000000, A.D. 2027-Jun-26 00:00:00.0000, 4.301317189037296E+08, -1.063671344619455E+08, -2.339324115301242E+07,
2461589.500000000, A.D. 2027-Jul-03 00:00:00.0000, 4.326789308542607E+08, -9.625613588400924E+07, -2.338650236739805E+07,
2461596.500000000, A.D. 2027-Jul-10 00:00:00.0000, 4.349860137100944E+08, -8.609172695280714E+07, -2.336678285364353E+07,
2461603.500000000, A.D. 2027-Jul-17 00:00:00.0000, 4.370519581485335E+08, -7.587960378458594E+07, -2.333410817686925E+07,
2461610.500000000, A.D. 2027-Jul-24 00:00:00.0000, 4.388758881907643E+08, -6.562547602611180E+07, -2.328851093041157E+07,
2461617.500000000, A.D. 2027-Jul-31 00:00:00.0000, 4.404570616938161E+08, -5.533506406586158E+07, -2.323003076897075E+07,
2461624.500000000, A.D. 2027-Aug-07 00:00:00.0000, 4.417948711520711E+08, -4.501409507060791E+07, -2.315871437431462E+07,
2461631.500000000, A.D. 2027-Aug-14 00:00:00.0000, 4.428888425109959E+08, -3.466829810094066E+07, -2.307461516311711E+07,
2461638.500000000, A.D. 2027-Aug-21 00:00:00.0000, 4.437386326146216E+08, -2.430340167264076E+07, -2.297779306878412E+07,
2461645.500000000, A.D. 2027-Aug-28 00:00:00.0000, 4.443440287175584E+08, -1.392513256259175E+07, -2.286831461381629E+07,
2461652.500000000, A.D. 2027-Sep-04 00:00:00.0000, 4.447049488806065E+08, -3.539213357271016E+06, -2.274625296002138E+07,
2461659.500000000, A.D. 2027-Sep-11 00:00:00.0000, 4.448214418562601E+08, 6.848640594113928E+06, -2.261168786287337E+07,
2461666.500000000, A.D. 2027-Sep-18 00:00:00.0000, 4.446936865986867E+08, 1.723272417055156E+07, -2.246470559564077E+07,
2461673.500000000, A.D. 2027-Sep-25 00:00:00.0000, 4.443219916278644E+08, 2.760734533571378E+07, -2.230539887087379E+07,
2461680.500000000, A.D. 2027-Oct-02 00:00:00.0000, 4.437067943234772E+08, 3.796682788718581E+07, -2.213386676411049E+07,
2461687.500000000, A.D. 2027-Oct-09 00:00:00.0000, 4.428486601717526E+08, 4.830551409409297E+07, -2.195021464245828E+07,
2461694.500000000, A.D. 2027-Oct-16 00:00:00.0000, 4.417482820297018E+08, 5.861776716869048E+07, -2.175455410860039E+07,
2461701.500000000, A.D. 2027-Oct-23 00:00:00.0000, 4.404064796682849E+08, 6.889797356632598E+07, -2.154700298487941E+07,
2461708.500000000, A.D. 2027-Oct-30 00:00:00.0000, 4.388241999698681E+08, 7.914054572389399E+07, -2.132768532227691E+07,
2461715.500000000, A.D. 2027-Nov-06 00:00:00.0000, 4.370025166170160E+08, 8.933992636619501E+07, -2.109673123549967E+07,
2461722.500000000, A.D. 2027-Nov-13 00:00:00.0000, 4.349426272914498E+08, 9.949059230555022E+07, -2.085427655190394E+07,
2461729.500000000, A.D. 2027-Nov-20 00:00:00.0000, 4.326458512892715E+08, 1.095870555472266E+08, -2.060046271941615E+07,
2461736.500000000, A.D. 2027-Nov-27 00:00:00.0000, 4.301136291700690E+08, 1.196238646634638E+08, -2.033543687967150E+07,
2461743.500000000, A.D. 2027-Dec-04 00:00:00.0000, 4.273475224165014E+08, 1.295956073501071E+08, -2.005935184601479E+07,
2461750.500000000, A.D. 2027-Dec-11 00:00:00.0000, 4.243492125552600E+08, 1.394969132021410E+08, -1.977236601459845E+07,
2461757.500000000, A.D. 2027-Dec-18 00:00:00.0000, 4.211205000160338E+08, 1.493224563690432E+08, -1.947464326147917E+07,
2461764.500000000, A.D. 2027-Dec-25 00:00:00.0000, 4.176633028820307E+08, 1.590669580876419E+08, -1.916635283980034E+07,
2461771.500000000, A.D. 2028-Jan-01 00:00:00.0000, 4.139796555748667E+08, 1.687251891065782E+08, -1.884766927962141E+07,
$$EOE